SatCatId,ObjectName,LaunchYear,OrbitalPeriod,LaunchMass,StatusCode,Inclination,Status,UcsData,OrbitClassEstimated,LaunchSiteCountry,Owner,UseType,Purpose,LaunchVehicleClass,TLE1,TLE2,MeanMotion,Eccentricity,OrbitClass
8836,SSU 2,1976,104.23,-1.0,UNK,63.35,Inactive,0,LEO,USA,USA,Unknown,Unknown,Saturn,1 08836U 76038D   23155.19777863  .00000147  00000+0  95832-4 0  9995,2 08836  63.3478  76.0830 0501294 165.8961 195.6696 13.81571009197979,13.81571009,0.0501294,LEO
8838,COMSTAR 1,1976,1442.42,-1.0,UNK,10.32,Inactive,0,GSO,USA,USA,Unknown,Unknown,Atlas,1 08838U 76042A   23155.20354238 -.00000221  00000+0  00000+0 0  9993,2 08838  10.3192 313.4734 0000668  96.8560  71.7261  0.99832384109509,0.99832384,6.68e-05,GSO
8845,METEOR 1-25,1976,102.01,-1.0,UNK,81.26,Inactive,0,LEO,Russia,Russia/USSR,Unknown,Unknown,Vostok,1 08845U 76043A   23155.56966182  .00000038  00000+0  13772-4 0  9998,2 08845  81.2608 315.5988 0039778 198.7832 161.1875 14.11578737568500,14.11578737,0.0039778,LEO
8860,P 76-5,1976,105.28,-1.0,UNK,99.92,Inactive,0,LEO,USA,USA,Unknown,Unknown,Unknown,1 08860U 76047A   23155.43310512  .00000111  00000+0  18602-3 0  9993,2 08860  99.9181 321.7271 0041024 294.4147 119.8832 13.67835880344783,13.6783588,0.0041024,LEO
8873,COSMOS 823,1976,104.85,-1.0,UNK,82.97,Inactive,0,LEO,Russia,Russia/USSR,Unknown,Unknown,Kosmos,1 08873U 76051A   23155.62859067  .00000077  00000+0  65808-4 0  9998,2 08873  82.9676 232.6388 0023738  63.8471  45.8191 13.73383289354973,13.73383289,0.0023738,LEO
8882,MARISAT 3,1976,1501.57,-1.0,-,10.3,Inactive,0,HEO,USA,USA,Unknown,Unknown,Delta,1 08882U 76053A   23154.90410736 -.00000077  00000+0  00000+0 0  9995,2 08882  10.2927 309.2228 0123751 308.1403  52.2067  0.95899224110522,0.95899224,0.0123751,HEO
8884,SSU 3,1976,103.86,-1.0,UNK,63.35,Inactive,0,LEO,USA,USA,Unknown,Unknown,Saturn,1 08884U 76038J   23155.58026423  .00000508  00000+0  20687-3 0  9996,2 08884  63.3460   6.3246 0493330 167.3970 193.9959 13.86517578208295,13.86517578,0.049333,LEO
8889,COSMOS 825,1976,114.68,-1.0,UNK,74.0,Inactive,0,LEO,Russia,Russia/USSR,Military,Unknown,Kosmos,1 08889U 76054A   23155.23791100 -.00000017  00000+0 -70841-5 0  9998,2 08889  74.0018  74.7297 0058333  23.5607  89.1255 12.55713860152978,12.5571386,0.0058333,LEO
8890,COSMOS 826,1976,116.27,-1.0,UNK,74.0,Inactive,0,LEO,Russia,Russia/USSR,Military,Unknown,Kosmos,1 08890U 76054B   23155.28531451 -.00000022  00000+0 -48948-4 0  9994,2 08890  74.0013  84.4842 0040185 263.5453 213.2881 12.38530260123582,12.3853026,0.0040185,LEO
8891,COSMOS 827,1976,114.9,-1.0,UNK,74.0,Inactive,0,LEO,Russia,Russia/USSR,Military,Unknown,Kosmos,1 08891U 76054C   23155.52116826  .00000004  00000+0  12827-3 0  9991,2 08891  73.9982 178.7978 0048524 153.5577   0.6911 12.53281744566640,12.53281744,0.0048524,LEO
8892,COSMOS 828,1976,115.11,-1.0,UNK,74.0,Inactive,0,LEO,Russia,Russia/USSR,Military,Unknown,Kosmos,1 08892U 76054D   23155.52467625 -.00000017  00000+0 -63078-5 0  9990,2 08892  74.0009 278.4300 0036464 268.3829 164.9524 12.50960290144851,12.5096029,0.0036464,LEO
8893,COSMOS 829,1976,115.32,-1.0,UNK,74.0,Inactive,0,LEO,Russia,Russia/USSR,Military,Unknown,Kosmos,1 08893U 76054E   23155.34389073  .00000006  00000+0  14680-3 0  9990,2 08893  74.0024  16.8531 0025534  31.9546  80.1843 12.48653830140872,12.4865383,0.0025534,LEO
8894,COSMOS 830,1976,115.55,-1.0,UNK,74.0,Inactive,0,LEO,Russia,Russia/USSR,Military,Unknown,Kosmos,1 08894U 76054F   23155.36318669 -.00000027  00000+0 -80165-4 0  9993,2 08894  73.9986 119.8033 0015849 174.9132 298.5832 12.46235024136738,12.46235024,0.0015849,LEO
8895,COSMOS 831,1976,115.78,-1.0,UNK,74.0,Inactive,0,LEO,Russia,Russia/USSR,Military,Unknown,Kosmos,1 08895U 76054G   23155.59198101  .00000017  00000+0  23237-3 0  9999,2 08895  74.0003 225.5245 0020935 334.7256  94.1669 12.43722828132460,12.43722828,0.0020935,LEO
8896,COSMOS 832,1976,116.01,-1.0,UNK,74.0,Inactive,0,LEO,Russia,Russia/USSR,Military,Unknown,Kosmos,1 08896U 76054H   23155.59050781 -.00000019  00000+0 -24156-4 0  9997,2 08896  74.0005 327.7294 0024204 127.2412 305.9149 12.41298166128332,12.41298166,0.0024204,LEO
8916,OPS 2112 (DSP 6),1976,1447.64,-1.0,UNK,6.23,Inactive,0,GSO,USA,USA,Unknown,Unknown,Titan,1 08916U 76059A   23155.39854396 -.00000153  00000+0  00000+0 0  9992,2 08916   6.2283 285.1160 0008533 186.9785 212.9691  0.99471757 14478,0.99471757,0.0008533,GSO
8923,COSMOS 836,1976,100.46,-1.0,UNK,74.05,Inactive,0,LEO,Russia,Russia/USSR,Military,Unknown,Kosmos,1 08923U 76061A   23155.58073443  .00000160  00000+0  67203-4 0  9990,2 08923  74.0525 200.9245 0018314 349.7062  10.3712 14.33388959451329,14.33388959,0.0018314,LEO
9009,PALAPA 1,1976,1438.87,-1.0,UNK,10.23,Inactive,0,GSO,USA,Indonesia,Unknown,Unknown,Long March,1 09009U 76066A   23155.53984087  .00000145  00000+0  00000+0 0  9991,2 09009  10.2233 313.7723 0007101 171.1504   7.4150  1.00079448116845,1.00079448,0.0007101,GSO
9011,COSMOS 839,1976,116.8,-1.0,UNK,65.85,Inactive,0,LEO,Russia,Russia/USSR,Unknown,Unknown,Kosmos,1 09011U 76067A   23155.55702340 -.00000035  00000+0  69912-4 0  9998,2 09011  65.8527 246.6479 0704090 357.2897   2.4361 12.32855796123465,12.32855796,0.070409,LEO
9022,COSMOS 841,1976,100.28,-1.0,UNK,74.04,Inactive,0,LEO,Russia,Russia/USSR,Military,Unknown,Kosmos,1 09022U 76069A   23155.52203576  .00000152  00000+0  61365-4 0  9999,2 09022  74.0416 176.9240 0012775 177.6746 182.4469 14.36048422453185,14.36048422,0.0012775,LEO
9025,COSMOS 842,1976,104.79,-1.0,UNK,82.99,Inactive,0,LEO,Russia,Russia/USSR,Unknown,Unknown,Kosmos,1 09025U 76070A   23155.51268531  .00000059  00000+0  46310-4 0  9994,2 09025  82.9856 151.2481 0029064 115.1187 356.9145 13.74114905349827,13.74114905,0.0029064,LEO
9047,COMSTAR 2,1976,1440.48,-1.0,UNK,10.26,Inactive,0,GSO,USA,USA,Unknown,Unknown,Unknown,1 09047U 76073A   23155.61845419  .00000092  00000+0  00000+0 0  9996,2 09047  10.2519 313.8441 0004601 141.6843  80.0128  0.99967072 36122,0.99967072,0.0004601,GSO
9057,NOAA 5,1976,116.34,-1.0,-,102.15,Inactive,0,LEO,USA,USA,Unknown,Unknown,Delta,1 09057U 76077A   23155.55786434 -.00000043  00000+0  17139-4 0  9998,2 09057 102.1524 125.5303 0009346 208.6958 273.1870 12.37785050117305,12.3778505,0.0009346,LEO
9061,COSMOS 846,1976,104.61,-1.0,UNK,82.93,Inactive,0,LEO,Russia,Russia/USSR,Unknown,Unknown,Kosmos,1 09061U 76078A   23155.55003939  .00000061  00000+0  46566-4 0  9991,2 09061  82.9303 165.4400 0042258  39.0488  79.7277 13.76492740622705,13.7649274,0.0042258,LEO
9415,OPS 5721 (DMSP 5D-1 F1),1976,100.93,-1.0,-,98.27,Inactive,0,LEO,USA,USA,Unknown,Unknown,Thor,1 09415U 76091A   23155.55406561  .00000120  00000+0  66285-4 0  9993,2 09415  98.2723 346.6562 0016509 289.9773  69.9630 14.26665740194378,14.2666574,0.0016509,LEO
9416,RADUGA 2,1976,1436.37,-1.0,-,6.33,Inactive,0,GSO,Kazakhstan,Russia/USSR,Unknown,Unknown,Proton,1 09416U 76092A   23155.62814594 -.00000141  00000+0  00000+0 0  9994,2 09416   6.3273 285.7401 0025909   9.0166 267.0534  1.00252420118224,1.0025242,0.0025909,GSO
9443,COSMOS 858,1976,100.39,-1.0,UNK,74.05,Inactive,0,LEO,Russia,Russia/USSR,Military,Unknown,Kosmos,1 09443U 76098A   23155.14624928  .00000157  00000+0  65002-4 0  9991,2 09443  74.0511  28.4562 0013033  59.4604 300.7833 14.34401709439693,14.34401709,0.0013033,LEO
9478,MARISAT 2,1976,1475.53,-1.0,-,8.14,Inactive,0,GSO,USA,USA,Unknown,Unknown,Delta,1 09478U 76101A   23155.24237125 -.00000216  00000+0  00000+0 0  9993,2 09478   8.1393 313.7409 0101378 330.9910  45.8112  0.97592487112541,0.97592487,0.0101378,GSO
9481,METEOR 1-26,1976,102.13,-1.0,UNK,81.22,Inactive,0,LEO,Russia,Russia/USSR,Unknown,Unknown,Vostok,1 09481U 76102A   23155.19568157  .00000048  00000+0  20248-4 0  9997,2 09481  81.2196  47.3222 0022986 163.6630 196.5287 14.09965652397603,14.09965652,0.0022986,LEO
9486,COSMOS 860,1976,104.25,-1.0,UNK,64.7,Inactive,0,LEO,Kazakhstan,Russia/USSR,Unknown,Unknown,Tsiklon,1 09486U 76103A   23155.54276701 -.00000038  00000+0  48399-4 0  9990,2 09486  64.7002 223.6158 0047986 152.6811 207.6784 13.81311440729809,13.8131144,0.0047986,LEO
9494,COSMOS 861,1976,104.23,-1.0,UNK,64.86,Inactive,0,LEO,Kazakhstan,Russia/USSR,Unknown,Unknown,Tsiklon,1 09494U 76104A   23155.11177254 -.00000057  00000+0  30094-4 0  9990,2 09494  64.8607  56.3069 0040988 164.4362 195.7967 13.81623258352714,13.81623258,0.0040988,LEO
9495,COSMOS 862,1976,718.88,-1.0,UNK,69.58,Inactive,0,MEO,Russia,Russia/USSR,Unknown,Unknown,Molniya,1 09495U 76105A   23154.97996055  .00000060  00000+0  00000+0 0  9995,2 09495  69.5846 110.0215 6361981 219.2104  70.8886  2.00311318219413,2.00311318,0.6361981,MEO
9503,EKRAN 1,1976,1435.41,-1.0,-,6.42,Inactive,0,GSO,Kazakhstan,Russia/USSR,Unknown,Unknown,Proton,1 09503U 76107A   23155.63046657 -.00000165  00000+0  00000+0 0  9992,2 09503   6.4171 286.1219 0071426 157.1435 120.3351  1.00319300187393,1.003193,0.0071426,GSO
9509,COSMOS 864,1976,104.7,-1.0,UNK,82.94,Inactive,0,LEO,Russia,Russia/USSR,Unknown,Unknown,Kosmos,1 09509U 76108A   23155.32874358  .00000059  00000+0  45267-4 0  9992,2 09509  82.9411 251.9276 0029878   3.2854  55.2603 13.75423476338005,13.75423476,0.0029878,LEO
9588,COSMOS 871,1976,114.67,-1.0,UNK,74.03,Inactive,0,LEO,Russia,Russia/USSR,Military,Unknown,Kosmos,1 09588U 76118A   23155.35160610 -.00000021  00000+0 -29713-4 0  9991,2 09588  74.0287 119.8854 0030462 227.8651 244.0479 12.55746773131060,12.55746773,0.0030462,LEO
9589,COSMOS 872,1976,114.46,-1.0,UNK,74.03,Inactive,0,LEO,Russia,Russia/USSR,Military,Unknown,Kosmos,1 09589U 76118B   23155.62134830  .00000008  00000+0  13979-3 0  9996,2 09589  74.0326  20.2383 0041452 102.6133 321.1118 12.58081201135087,12.58081201,0.0041452,LEO
9590,COSMOS 873,1976,115.53,-1.0,UNK,74.03,Inactive,0,LEO,Russia,Russia/USSR,Military,Unknown,Kosmos,1 09590U 76118C   23155.49777109 -.00000014  00000+0  14126-4 0  9999,2 09590  74.0273 153.2807 0019887 113.3338   6.9499 12.46391069115217,12.46391069,0.0019887,LEO
